GORIZONT 1 [-]          
1 11158U 78118A   17286.37980879 -.00000229  00000-0  00000-0 0  9990
2 11158  15.1841 264.5137 3502423 196.0767 149.0749  1.00296659 91160
GORIZONT 2 [-]          
1 11440U 79062A   17286.61708642 -.00000161  00000-0  00000-0 0  9991
2 11440  12.6912 322.2245 0007426 264.2150  98.1806  1.00239385106259
GORIZONT 3 [-]          
1 11648U 79105A   17285.75194344  .00000109  00000-0  00000+0 0  9991
2 11648  12.8050 323.4249 0011793 186.5982 183.7091  1.00296350 90672
GORIZONT 4 [-]          
1 11841U 80049A   17284.85535472 -.00000210  00000-0  00000+0 0  9990
2 11841  13.8110 327.9390 0006463 280.7357  78.9578  0.98631196202286
GORIZONT 5 [-]          
1 13092U 82020A   17285.35249594 -.00000203  00000-0  00000-0 0  9997
2 13092  14.5714 332.7329 0032016 172.2678 319.2455  0.98532716 90361
GORIZONT 6 [-]          
1 13624U 82103A   17286.08813111 -.00000290  00000-0  00000-0 0  9999
2 13624  13.4332 332.6071 0003800 257.4299 113.6896  1.00184640 89178
GORIZONT 7 [-]          
1 14160U 83066A   17285.88590726 -.00000189  00000-0  00000-0 0  9992
2 14160  14.6943 340.4546 0015304 271.8720  95.6225  0.98349129123580
GORIZONT 8 [-]          
1 14532U 83118A   17285.82827133 -.00000106  00000-0  00000-0 0  9991
2 14532  14.7670 342.0520 0023098 105.8540 263.9687  0.98269753 89369
GORIZONT 9 [-]          
1 14940U 84041A   17285.62618772 -.00000286  00000-0  00000+0 0  9993
2 14940  14.0032 340.6492 0006518 226.2448 132.5868  1.00302382 90243
GORIZONT 10 [-]         
1 15144U 84078A   17286.30363389 -.00000268  00000-0  00000-0 0  9998
2 15144  14.0386 341.6202 0005675 273.9575 202.3429  1.00258746122806
GORIZONT 11 [-]         
1 15484U 85007A   17286.10995350 -.00000215  00000-0  00000-0 0  9997
2 15484  14.1000 343.4115 0002741 262.0090  88.5709  1.00163045120846
GORIZONT 12 [-]         
1 16769U 86044A   17286.15882990 -.00000258  00000-0  00000-0 0  9993
2 16769  14.3999 348.2955 0006590 250.9989 291.0534  1.00206865115485
GORIZONT 13 [-]         
1 17083U 86090A   17285.93868905 -.00000172  00000-0  00000+0 0  9993
2 17083  15.8948 354.3332 0019573 282.7630  77.4759  0.96726711 88017
GORIZONT 14 [-]         
1 17969U 87040A   17286.17129043 -.00000094  00000-0  00000-0 0  9996
2 17969  15.3881 346.6294 0026752 137.1614 184.5530  0.97658093 88907
GORIZONT 15 [-]         
1 19017U 88028A   17284.94563274 -.00000187  00000-0  00000+0 0  9992
2 19017  15.9358 357.6406 0031716 116.1736 249.4044  0.97829676 88473
GORIZONT 16 [-]         
1 19397U 88071A   17285.88590726  .00000017  00000-0  00000+0 0  9998
2 19397  14.8386 356.5385 0012778 344.1569  15.9228  0.99982051106549
GORIZONT 17 [-]         
1 19765U 89004A   17286.24531648 -.00000263  00000-0  00000+0 0  9997
2 19765  15.1676 359.4832 0016128  89.7784 338.4144  0.99067369104170
GORIZONT 18 [-]         
1 20107U 89052A   17285.93448734 -.00000188  00000-0  00000+0 0  9996
2 20107  15.1090   0.8221 0040160 268.6491  86.8077  0.99404266102906
GORIZONT 19 [-]         
1 20263U 89081A   17285.82337674  .00000079  00000-0  00000+0 0  9997
2 20263  14.8779   0.2654 0007680 238.4784 126.2218  1.00329156102715
GORIZONT 20 [-]         
1 20659U 90054A   17286.57652446 -.00000122  00000-0  00000-0 0  9999
2 20659  15.0999   3.1807 0005708 184.7628 115.4412  1.00322578 99927
GORIZONT 21 [-]         
1 20923U 90094A   17286.40008380 -.00000372  00000-0  00000-0 0  9998
2 20923  15.0484   3.9590 0007084 216.6967  75.3212  1.00212418 98671
GORIZONT 22 [-]         
1 20953U 90102A   17286.16271472  .00000096  00000-0  00000+0 0  9999
2 20953  14.9872   4.2640 0007374 271.9082 187.8110  1.00337584 98620
GORIZONT 23 [-]         
1 21533U 91046A   17285.82480692  .00000021  00000-0  00000-0 0  9999
2 21533  15.4534   8.0038 0010270 253.3302 128.4357  0.98905586 15348
GORIZONT 24 [-]         
1 21759U 91074A   17285.47904838 -.00000022  00000-0  00000-0 0  9996
2 21759  15.4704   9.6459 0021051 194.5864 243.5174  0.98441642 93754
GORIZONT 25 [-]         
1 21922U 92017A   17285.38942602  .00000044  00000-0  00000+0 0  9999
2 21922  15.0414   9.3753 0023151  24.0711 325.4171  0.99854124 93284
GORIZONT 26 [-]         
1 22041U 92043A   17285.05622436 -.00000234  00000-0  00000-0 0  9998
2 22041  15.0698  11.0511 0034821 195.9552 184.6419  0.99246321 92014
GORIZONT 27 [-]         
1 22245U 92082A   17286.12738668 -.00000192  00000-0  00000-0 0  9994
2 22245  14.9938  11.1571 0015073 294.3213  30.8762  1.00147077 95363
GORIZONT 28 [-]         
1 22880U 93069A   17286.39327719  .00000051  00000-0  00000-0 0  9998
2 22880  14.8478  14.5765 0028264  90.4369 292.2107  0.99648968 87552
GORIZONT 29 [-]         
1 22907U 93072A   17285.82499753 -.00000349  00000-0  00000-0 0  9998
2 22907  14.7924  14.2717 0014805 274.3961 165.9112  1.00155475 87447
GORIZONT 30 [-]         
1 23108U 94030A   17286.46552221  .00000006  00000-0  00000+0 0  9996
2 23108  14.7296  15.2652 0006531 228.1643 125.8910  1.00268725 85704
GORIZONT 31 [-]         
1 23775U 96005A   17286.40500976 -.00000161  00000-0  00000-0 0  9998
2 23775  14.1727  20.8614 0020703 170.0056 144.0813  0.99901727 79393
GORIZONT 32 [-]         
1 23880U 96034A   17286.57820841 -.00000324  00000-0  00000-0 0  9992
2 23880  14.0769  21.4879 0012397 275.7018  34.8706  1.00149589 78306
GORIZONT 33 [-]         
1 26372U 00029A   17285.97884521  .00000111  00000-0  00000+0 0  9990
2 26372  11.9824  31.1407 0003129 223.0722 162.3724  1.00171673 63635
